{"type": "FeatureCollection", "features": [ {"type": "Feature", "properties": {"norad_id": 40115, "name": "WORLDVIEW-3 (WV-3)", "group": "resource", "lat": -38.08365527678739, "lon": -137.43181377696123, "alt_km": 615.7559424835008, "timestamp": "2025-12-02T08:59:32.376715+00:00", "meta": {"OBJECT_NAME": "WORLDVIEW-3 (WV-3)", "OBJECT_ID": "2014-048A", "EPOCH": "2025-12-02T04:46:43.028832", "MEAN_MOTION": 14.85467296, "ECCENTRICITY": 0.0004032, "INCLINATION": 97.8627, "RA_OF_ASC_NODE": 48.6117, "ARG_OF_PERICENTER": 223.2189, "MEAN_ANOMALY": 136.871, "EPHEMERIS_TYPE": 0, "CLASSIFICATION_TYPE": "U", "NORAD_CAT_ID": 40115, "ELEMENT_SET_NO": 999, "REV_AT_EPOCH": 61267, "BSTAR": 0.0001754, "MEAN_MOTION_DOT": 1.459e-05, "MEAN_MOTION_DDOT": 0}, "tle": {"line1": "1 40115U 14048A   25336.19910913  .00001459  00000+0  17540-3 0  9998", "line2": "2 40115  97.8627  48.6117 0004032 223.2189 136.8710 14.85467296612675"}}, "geometry": {"type": "Point", "coordinates": [-137.43181377696123, -38.08365527678739]}}, {"type": "Feature", "properties": {"norad_id": 40118, "name": "GAOFEN-2", "group": "resource", "lat": -37.868701769514864, "lon": -150.78566420287092, "alt_km": 632.4903324539027, "timestamp": "2025-12-02T08:59:32.376726+00:00", "meta": {"OBJECT_NAME": "GAOFEN-2", "OBJECT_ID": "2014-049A", "EPOCH": "2025-12-02T04:45:59.168736", "MEAN_MOTION": 14.80577582, "ECCENTRICITY": 0.0008142, "INCLINATION": 98.04, "RA_OF_ASC_NODE": 35.3482, "ARG_OF_PERICENTER": 143.3516, "MEAN_ANOMALY": 216.8254, "EPHEMERIS_TYPE": 0, "CLASSIFICATION_TYPE": "U", "NORAD_CAT_ID": 40118, "ELEMENT_SET_NO": 999, "REV_AT_EPOCH": 61008, "BSTAR": 0.00012637, "MEAN_MOTION_DOT": 9.16e-06, "MEAN_MOTION_DDOT": 0}, "tle": {"line1": "1 40118U 14049A   25336.19860149  .00000916  00000+0  12637-3 0  9996", "line2": "2 40118  98.0400  35.3482 0008142 143.3516 216.8254 14.80577582610080"}}, "geometry": {"type": "Point", "coordinates": [-150.78566420287092, -37.868701769514864]}}, {"type": "Feature", "properties": {"norad_id": 40143, "name": "YAOGAN-21", "group": "resource", "lat": 20.339831217772243, "lon": 17.46145370217144, "alt_km": 491.18905565735804, "timestamp": "2025-12-02T08:59:32.376736+00:00", "meta": {"OBJECT_NAME": "YAOGAN-21", "OBJECT_ID": "2014-053A", "EPOCH": "2025-12-02T04:10:24.754368", "MEAN_MOTION": 15.23460813, "ECCENTRICITY": 0.0010307, "INCLINATION": 97.1779, "RA_OF_ASC_NODE": 19.9471, "ARG_OF_PERICENTER": 73.7444, "MEAN_ANOMALY": 286.4927, "EPHEMERIS_TYPE": 0, "CLASSIFICATION_TYPE": "U", "NORAD_CAT_ID": 40143, "ELEMENT_SET_NO": 999, "REV_AT_EPOCH": 62493, "BSTAR": 0.00035711, "MEAN_MOTION_DOT": 8.46e-05, "MEAN_MOTION_DDOT": 0}, "tle": {"line1": "1 40143U 14053A   25336.17389762  .00008460  00000+0  35711-3 0  9994", "line2": "2 40143  97.1779  19.9471 0010307  73.7444 286.4927 15.23460813624930"}}, "geometry": {"type": "Point", "coordinates": [17.46145370217144, 20.339831217772243]}}, {"type": "Feature", "properties": {"norad_id": 40275, "name": "YAOGAN-22", "group": "resource", "lat": 44.826600477819575, "lon": 108.77281222449258, "alt_km": 1200.870628812614, "timestamp": "2025-12-02T08:59:32.376747+00:00", "meta": {"OBJECT_NAME": "YAOGAN-22", "OBJECT_ID": "2014-063A", "EPOCH": "2025-12-02T03:17:03.280128", "MEAN_MOTION": 13.15522128, "ECCENTRICITY": 0.0005867, "INCLINATION": 100.7417, "RA_OF_ASC_NODE": 119.4069, "ARG_OF_PERICENTER": 273.8048, "MEAN_ANOMALY": 86.2392, "EPHEMERIS_TYPE": 0, "CLASSIFICATION_TYPE": "U", "NORAD_CAT_ID": 40275, "ELEMENT_SET_NO": 999, "REV_AT_EPOCH": 53390, "BSTAR": 0.00014974, "MEAN_MOTION_DOT": 1e-07, "MEAN_MOTION_DDOT": 0}, "tle": {"line1": "1 40275U 14063A   25336.13684352  .00000010  00000+0  14974-3 0  9991", "line2": "2 40275 100.7417 119.4069 0005867 273.8048  86.2392 13.15522128533908"}}, "geometry": {"type": "Point", "coordinates": [108.77281222449258, 44.826600477819575]}}, {"type": "Feature", "properties": {"norad_id": 40298, "name": "ASNARO", "group": "resource", "lat": -45.602929857236575, "lon": -135.0162794034105, "alt_km": 513.6863302903093, "timestamp": "2025-12-02T08:59:32.376757+00:00", "meta": {"OBJECT_NAME": "ASNARO", "OBJECT_ID": "2014-070A", "EPOCH": "2025-12-02T04:50:28.226976", "MEAN_MOTION": 15.19801615, "ECCENTRICITY": 0.0007059, "INCLINATION": 97.3671, "RA_OF_ASC_NODE": 52.4079, "ARG_OF_PERICENTER": 131.2316, "MEAN_ANOMALY": 228.9529, "EPHEMERIS_TYPE": 0, "CLASSIFICATION_TYPE": "U", "NORAD_CAT_ID": 40298, "ELEMENT_SET_NO": 999, "REV_AT_EPOCH": 61409, "BSTAR": 0.00057599, "MEAN_MOTION_DOT": 0.00012286, "MEAN_MOTION_DDOT": 0}, "tle": {"line1": "1 40298U 14070A   25336.20171559  .00012286  00000+0  57599-3 0  9990", "line2": "2 40298  97.3671  52.4079 0007059 131.2316 228.9529 15.19801615614097"}}, "geometry": {"type": "Point", "coordinates": [-135.0162794034105, -45.602929857236575]}}, {"type": "Feature", "properties": {"norad_id": 40310, "name": "YAOGAN-24", "group": "resource", "lat": 6.760017071554689, "lon": 106.44342740274253, "alt_km": 653.1523346334952, "timestamp": "2025-12-02T08:59:32.376767+00:00", "meta": {"OBJECT_NAME": "YAOGAN-24", "OBJECT_ID": "2014-072A", "EPOCH": "2025-12-02T05:42:27.717120", "MEAN_MOTION": 14.76139628, "ECCENTRICITY": 0.001418, "INCLINATION": 98.1217, "RA_OF_ASC_NODE": 107.2758, "ARG_OF_PERICENTER": 170.6265, "MEAN_ANOMALY": 189.5211, "EPHEMERIS_TYPE": 0, "CLASSIFICATION_TYPE": "U", "NORAD_CAT_ID": 40310, "ELEMENT_SET_NO": 999, "REV_AT_EPOCH": 59466, "BSTAR": 0.00018285, "MEAN_MOTION_DOT": 1.212e-05, "MEAN_MOTION_DDOT": 0}, "tle": {"line1": "1 40310U 14072A   25336.23782080  .00001212  00000+0  18285-3 0  9993", "line2": "2 40310  98.1217 107.2758 0014180 170.6265 189.5211 14.76139628594663"}}, "geometry": {"type": "Point", "coordinates": [106.44342740274253, 6.760017071554689]}}, {"type": "Feature", "properties": {"norad_id": 40336, "name": "CBERS 4", "group": "resource", "lat": -1.884471588951285, "lon": -145.53076713285228, "alt_km": 775.9136538933662, "timestamp": "2025-12-02T08:59:32.376777+00:00", "meta": {"OBJECT_NAME": "CBERS 4", "OBJECT_ID": "2014-079A", "EPOCH": "2025-12-02T04:48:09.487584", "MEAN_MOTION": 14.35527281, "ECCENTRICITY": 0.0001413, "INCLINATION": 98.3324, "RA_OF_ASC_NODE": 34.5769, "ARG_OF_PERICENTER": 128.0866, "MEAN_ANOMALY": 232.0448, "EPHEMERIS_TYPE": 0, "CLASSIFICATION_TYPE": "U", "NORAD_CAT_ID": 40336, "ELEMENT_SET_NO": 999, "REV_AT_EPOCH": 57569, "BSTAR": 8.0889e-05, "MEAN_MOTION_DOT": 1.91e-06, "MEAN_MOTION_DDOT": 0}, "tle": {"line1": "1 40336U 14079A   25336.20010981  .00000191  00000+0  80889-4 0  9994", "line2": "2 40336  98.3324  34.5769 0001413 128.0866 232.0448 14.35527281575694"}}, "geometry": {"type": "Point", "coordinates": [-145.53076713285228, -1.884471588951285]}}, {"type": "Feature", "properties": {"norad_id": 40362, "name": "YAOGAN-26", "group": "resource", "lat": -59.583461434729976, "lon": 145.22827526711328, "alt_km": 462.0933264330042, "timestamp": "2025-12-02T08:59:32.376788+00:00", "meta": {"OBJECT_NAME": "YAOGAN-26", "OBJECT_ID": "2014-088A", "EPOCH": "2025-12-02T04:49:47.959392", "MEAN_MOTION": 15.38729072, "ECCENTRICITY": 0.0007425, "INCLINATION": 97.0642, "RA_OF_ASC_NODE": 337.2556, "ARG_OF_PERICENTER": 57.9149, "MEAN_ANOMALY": 302.2817, "EPHEMERIS_TYPE": 0, "CLASSIFICATION_TYPE": "U", "NORAD_CAT_ID": 40362, "ELEMENT_SET_NO": 999, "REV_AT_EPOCH": 60732, "BSTAR": 0.000562, "MEAN_MOTION_DOT": 0.00021485, "MEAN_MOTION_DDOT": 0}, "tle": {"line1": "1 40362U 14088A   25336.20124953  .00021485  00000+0  56200-3 0  9996", "line2": "2 40362  97.0642 337.2556 0007425  57.9149 302.2817 15.38729072607324"}}, "geometry": {"type": "Point", "coordinates": [145.22827526711328, -59.583461434729976]}}, {"type": "Feature", "properties": {"norad_id": 40376, "name": "SMAP", "group": "resource", "lat": 66.78176509727115, "lon": -38.2151667377642, "alt_km": 674.9703225344365, "timestamp": "2025-12-02T08:59:32.376799+00:00", "meta": {"OBJECT_NAME": "SMAP", "OBJECT_ID": "2015-003A", "EPOCH": "2025-12-02T03:45:31.694112", "MEAN_MOTION": 14.63353768, "ECCENTRICITY": 0.0001338, "INCLINATION": 98.1292, "RA_OF_ASC_NODE": 341.0331, "ARG_OF_PERICENTER": 90.148, "MEAN_ANOMALY": 269.9875, "EPHEMERIS_TYPE": 0, "CLASSIFICATION_TYPE": "U", "NORAD_CAT_ID": 40376, "ELEMENT_SET_NO": 999, "REV_AT_EPOCH": 57880, "BSTAR": 0.00014155, "MEAN_MOTION_DOT": 6.84e-06, "MEAN_MOTION_DDOT": 0}, "tle": {"line1": "1 40376U 15003A   25336.15661683  .00000684  00000+0  14155-3 0  9990", "line2": "2 40376  98.1292 341.0331 0001338  90.1480 269.9875 14.63353768578805"}}, "geometry": {"type": "Point", "coordinates": [-38.2151667377642, 66.78176509727115]}}, {"type": "Feature", "properties": {"norad_id": 40536, "name": "KOMPSAT-3A", "group": "resource", "lat": 7.162777770676807, "lon": -50.81689419504546, "alt_km": 440.2136528398487, "timestamp": "2025-12-02T08:59:32.376809+00:00", "meta": {"OBJECT_NAME": "KOMPSAT-3A", "OBJECT_ID": "2015-014A", "EPOCH": "2025-12-02T04:17:34.541664", "MEAN_MOTION": 15.43362646, "ECCENTRICITY": 0.0003589, "INCLINATION": 97.6769, "RA_OF_ASC_NODE": 309.948, "ARG_OF_PERICENTER": 149.5565, "MEAN_ANOMALY": 210.5891, "EPHEMERIS_TYPE": 0, "CLASSIFICATION_TYPE": "U", "NORAD_CAT_ID": 40536, "ELEMENT_SET_NO": 999, "REV_AT_EPOCH": 59132, "BSTAR": 0.00051528, "MEAN_MOTION_DOT": 0.00022937, "MEAN_MOTION_DDOT": 0}, "tle": {"line1": "1 40536U 15014A   25336.17887201  .00022937  00000+0  51528-3 0  9998", "line2": "2 40536  97.6769 309.9480 0003589 149.5565 210.5891 15.43362646591323"}}, "geometry": {"type": "Point", "coordinates": [-50.81689419504546, 7.162777770676807]}}]}